OBJECT_NAME,OBJECT_ID,EPOCH,MEAN_MOTION,ECCENTRICITY,INCLINATION,RA_OF_ASC_NODE,ARG_OF_PERICENTER,MEAN_ANOMALY,EPHEMERIS_TYPE,CLASSIFICATION_TYPE,NORAD_CAT_ID,ELEMENT_SET_NO,REV_AT_EPOCH,BSTAR,MEAN_MOTION_DOT,MEAN_MOTION_DDOT
ONEWEB-0355,2021-083AJ,2024-08-15T22:05:30.237504,13.13470594,.0001676,87.8886,93.6498,84.7123,275.4198,0,U,49218,999,14421,.90339E-3,.343E-5,0
ONEWEB-0357,2021-083AK,2024-08-16T05:06:08.892288,13.20769891,.0001676,87.9181,47.7178,96.3209,263.8115,0,U,49219,999,14967,.3652E-3,.161E-5,0
ONEWEB-0332,2021-090A,2024-08-15T22:12:35.992512,13.14501037,.0001482,87.8920,63.0398,79.9464,280.1832,0,U,49279,999,13952,.48003E-3,.191E-5,0
ONEWEB-0347,2021-090B,2024-08-16T04:52:33.360096,13.20757934,.0000928,87.9183,47.7199,68.3180,291.8052,0,U,49280,999,14260,.26039E-3,.119E-5,0
ONEWEB-0349,2021-090C,2024-08-15T22:21:36.573120,13.20773556,.0001735,87.9189,47.7750,87.3579,272.7753,0,U,49281,999,14135,.17439E-3,.84E-6,0
ONEWEB-0353,2021-090D,2024-08-15T22:01:11.490240,13.14503229,.0001507,87.8922,63.0265,82.3654,277.7646,0,U,49282,999,13952,.83075E-3,.321E-5,0
ONEWEB-0356,2021-090E,2024-08-15T22:19:21.355392,13.20770576,.0002443,87.9187,47.7693,72.0970,288.0430,0,U,49283,999,14135,.13845E-3,.69E-6,0
ONEWEB-0358,2021-090F,2024-08-15T21:13:25.784544,13.20768534,.0002082,87.9189,47.7656,87.6307,272.5065,0,U,49284,999,14207,-.22133E-4,.4E-7,0
ONEWEB-0359,2021-090G,2024-08-15T21:08:52.992960,13.20773139,.0002093,87.9187,47.7835,101.6696,258.4673,0,U,49285,999,14205,-.87372E-4,-.23E-6,0
ONEWEB-0360,2021-090H,2024-08-15T22:44:21.487488,13.20772167,.0001815,87.9186,47.7752,93.5924,266.5417,0,U,49286,999,14137,.55501E-4,.36E-6,0
ONEWEB-0361,2021-090J,2024-08-15T22:17:04.776000,13.20771607,.0001805,87.9188,47.7736,85.7783,274.3557,0,U,49287,999,14182,.20252E-3,.95E-6,0
ONEWEB-0362,2021-090K,2024-08-15T21:08:35.032992,13.19727927,.0001553,87.9101,78.3461,95.0441,265.0869,0,U,49288,999,13850,.45691E-4,.31E-6,0
ONEWEB-0363,2021-090L,2024-08-15T22:39:48.036672,13.20772431,.0002052,87.9188,47.7656,83.8183,276.3184,0,U,49289,999,14183,.43984E-4,.31E-6,0
ONEWEB-0364,2021-090M,2024-08-16T05:01:36.610464,13.20769565,.0001819,87.9188,47.7386,85.6290,274.5051,0,U,49290,999,14382,.28707E-3,.13E-5,0
ONEWEB-0365,2021-090N,2024-08-15T19:33:03.390912,13.19724756,.000167,87.9093,78.3358,85.8406,274.2917,0,U,49291,999,13800,.10213E-3,.54E-6,0
ONEWEB-0366,2021-090P,2024-08-15T21:56:37.532256,13.14500934,.0001687,87.8921,63.0367,86.2790,273.8532,0,U,49292,999,13950,.10051E-2,.385E-5,0
ONEWEB-0367,2021-090Q,2024-08-15T22:37:33.106656,13.20770295,.0001618,87.9188,47.7605,84.1234,276.0084,0,U,49293,999,14135,.93099E-4,.51E-6,0
ONEWEB-0368,2021-090R,2024-08-15T21:58:52.938336,13.20768718,.0001709,87.9188,47.7966,58.5697,301.5603,0,U,49294,999,14250,.16329E-3,.79E-6,0
ONEWEB-0369,2021-090S,2024-08-15T21:15:24.333984,13.19724954,.0001634,87.9100,78.3287,81.9840,278.1478,0,U,49295,999,13800,.17985E-4,.2E-6,0
ONEWEB-0370,2021-090T,2024-08-15T19:12:59.113152,13.20772772,.0001963,87.9187,47.7934,100.1765,259.9590,0,U,49296,999,14137,-.85901E-4,-.22E-6,0
ONEWEB-0371,2021-090U,2024-08-15T19:37:37.404192,13.19726934,.0001653,87.9101,78.3321,86.8624,273.2698,0,U,49297,999,13803,.11729E-3,.6E-6,0
ONEWEB-0372,2021-090V,2024-08-15T22:35:02.958144,13.20772433,.0001643,87.9187,47.7738,89.7014,270.4308,0,U,49298,999,14136,.9887E-4,.53E-6,0
ONEWEB-0373,2021-090W,2024-08-15T21:24:48.767904,13.20771708,.0001831,87.9186,47.7989,79.6084,280.5255,0,U,49299,999,14384,.18071E-4,.2E-6,0
ONEWEB-0374,2021-090X,2024-08-15T21:38:21.448032,13.14503389,.0001733,87.8919,63.0236,82.7701,277.3626,0,U,49300,999,13950,.20986E-3,.91E-6,0
