ONEWEB-0355             
1 49218U 21083AJ  24228.92048886  .00000343  00000+0  90339-3 0  9997
2 49218  87.8886  93.6498 0001676  84.7123 275.4198 13.13470594144210
ONEWEB-0357             
1 49219U 21083AK  24229.21260292  .00000161  00000+0  36520-3 0  9998
2 49219  87.9181  47.7178 0001676  96.3209 263.8115 13.20769891149673
ONEWEB-0332             
1 49279U 21090A   24228.92541658  .00000191  00000+0  48003-3 0  9999
2 49279  87.8920  63.0398 0001482  79.9464 280.1832 13.14501037139529
ONEWEB-0347             
1 49280U 21090B   24229.20316389  .00000119  00000+0  26039-3 0  9999
2 49280  87.9183  47.7199 0000928  68.3180 291.8052 13.20757934142604
ONEWEB-0349             
1 49281U 21090C   24228.93167330  .00000084  00000+0  17439-3 0  9994
2 49281  87.9189  47.7750 0001735  87.3579 272.7753 13.20773556141359
ONEWEB-0353             
1 49282U 21090D   24228.91749410  .00000321  00000+0  83075-3 0  9991
2 49282  87.8922  63.0265 0001507  82.3654 277.7646 13.14503229139525
ONEWEB-0356             
1 49283U 21090E   24228.93010828  .00000069  00000+0  13845-3 0  9995
2 49283  87.9187  47.7693 0002443  72.0970 288.0430 13.20770576141359
ONEWEB-0358             
1 49284U 21090F   24228.88432621  .00000004  00000+0 -22133-4 0  9990
2 49284  87.9189  47.7656 0002082  87.6307 272.5065 13.20768534142079
ONEWEB-0359             
1 49285U 21090G   24228.88116890 -.00000023  00000+0 -87372-4 0  9996
2 49285  87.9187  47.7835 0002093 101.6696 258.4673 13.20773139142050
ONEWEB-0360             
1 49286U 21090H   24228.94747092  .00000036  00000+0  55501-4 0  9999
2 49286  87.9186  47.7752 0001815  93.5924 266.5417 13.20772167141372
ONEWEB-0361             
1 49287U 21090J   24228.92852750  .00000095  00000+0  20252-3 0  9995
2 49287  87.9188  47.7736 0001805  85.7783 274.3557 13.20771607141822
ONEWEB-0362             
1 49288U 21090K   24228.88096103  .00000031  00000+0  45691-4 0  9998
2 49288  87.9101  78.3461 0001553  95.0441 265.0869 13.19727927138506
ONEWEB-0363             
1 49289U 21090L   24228.94430598  .00000031  00000+0  43984-4 0  9999
2 49289  87.9188  47.7656 0002052  83.8183 276.3184 13.20772431141838
ONEWEB-0364             
1 49290U 21090M   24229.20945151  .00000130  00000+0  28707-3 0  9992
2 49290  87.9188  47.7386 0001819  85.6290 274.5051 13.20769565143827
ONEWEB-0365             
1 49291U 21090N   24228.81462258  .00000054  00000+0  10213-3 0  9999
2 49291  87.9093  78.3358 0001670  85.8406 274.2917 13.19724756138001
ONEWEB-0366             
1 49292U 21090P   24228.91432329  .00000385  00000+0  10051-2 0  9993
2 49292  87.8921  63.0367 0001687  86.2790 273.8532 13.14500934139500
ONEWEB-0367             
1 49293U 21090Q   24228.94274429  .00000051  00000+0  93099-4 0  9997
2 49293  87.9188  47.7605 0001618  84.1234 276.0084 13.20770295141354
ONEWEB-0368             
1 49294U 21090R   24228.91589049  .00000079  00000+0  16329-3 0  9992
2 49294  87.9188  47.7966 0001709  58.5697 301.5603 13.20768718142500
ONEWEB-0369             
1 49295U 21090S   24228.88569831  .00000020  00000+0  17985-4 0  9992
2 49295  87.9100  78.3287 0001634  81.9840 278.1478 13.19724954138009
ONEWEB-0370             
1 49296U 21090T   24228.80068418 -.00000022  00000+0 -85901-4 0  9997
2 49296  87.9187  47.7934 0001963 100.1765 259.9590 13.20772772141378
ONEWEB-0371             
1 49297U 21090U   24228.81779403  .00000060  00000+0  11729-3 0  9998
2 49297  87.9101  78.3321 0001653  86.8624 273.2698 13.19726934138039
ONEWEB-0372             
1 49298U 21090V   24228.94100646  .00000053  00000+0  98870-4 0  9995
2 49298  87.9187  47.7738 0001643  89.7014 270.4308 13.20772433141364
ONEWEB-0373             
1 49299U 21090W   24228.89223111  .00000020  00000+0  18071-4 0  9992
2 49299  87.9186  47.7989 0001831  79.6084 280.5255 13.20771708143848
ONEWEB-0374             
1 49300U 21090X   24228.90163713  .00000091  00000+0  20986-3 0  9993
2 49300  87.8919  63.0236 0001733  82.7701 277.3626 13.14503389139507
